{
  "type": "FeatureCollection",
  "features": [
    {
      "type": "Feature",
      "properties": {
        "norad_id": 35061,
        "name": "COSMOS 2251 DEB",
        "group": "cosmos-2251-debris",
        "lat": -28.17006145812838,
        "lon": -47.086200784066435,
        "alt_km": 680.6459818642606,
        "timestamp": "2025-12-04T10:51:50.501946+00:00",
        "meta_object_name": "COSMOS 2251 DEB",
        "meta_object_id": "1993-036AHQ",
        "meta_epoch": "2025-12-03T05:33:06.011712",
        "meta_mean_motion": 14.67690423,
        "meta_eccentricity": 0.0038808,
        "meta_inclination": 74.0447,
        "meta_ra_of_asc_node": 324.0838,
        "meta_arg_of_pericenter": 77.8847,
        "meta_mean_anomaly": 282.6667,
        "meta_ephemeris_type": 0,
        "meta_classification_type": "U",
        "meta_norad_cat_id": 35061,
        "meta_element_set_no": 999,
        "meta_rev_at_epoch": 88435,
        "meta_bstar": 0.0010187,
        "meta_mean_motion_dot": 5.838e-05,
        "meta_mean_motion_ddot": 0,
        "tle_line1": "1 35061U 93036AHQ 25337.23131958  .00005838  00000+0  10187-2 0  9990",
        "tle_line2": "2 35061  74.0447 324.0838 0038808  77.8847 282.6667 14.67690423884356"
      },
      "geometry": {
        "type": "Point",
        "coordinates": [
          -47.086200784066435,
          -28.17006145812838
        ]
      }
    },
    {
      "type": "Feature",
      "properties": {
        "norad_id": 35062,
        "name": "COSMOS 2251 DEB",
        "group": "cosmos-2251-debris",
        "lat": -67.90731520655248,
        "lon": 63.4164176597963,
        "alt_km": 915.382914757778,
        "timestamp": "2025-12-04T10:51:50.501956+00:00",
        "meta_object_name": "COSMOS 2251 DEB",
        "meta_object_id": "1993-036AHR",
        "meta_epoch": "2025-12-01T08:58:12.976320",
        "meta_mean_motion": 14.22770227,
        "meta_eccentricity": 0.01291712,
        "meta_inclination": 74.0782,
        "meta_ra_of_asc_node": 113.6209,
        "meta_arg_of_pericenter": 116.5829,
        "meta_mean_anomaly": 244.8622,
        "meta_ephemeris_type": 0,
        "meta_classification_type": "U",
        "meta_norad_cat_id": 35062,
        "meta_element_set_no": 999,
        "meta_rev_at_epoch": 85337,
        "meta_bstar": 0.0022023834,
        "meta_mean_motion_dot": 5.359e-05,
        "meta_mean_motion_ddot": 0,
        "tle_line1": "1 35062U 93036AHR 25335.37376130  .00005359  00000+0  22024-2 0  9998",
        "tle_line2": "2 35062  74.0782 113.6209 0129171 116.5829 244.8622 14.22770227853379"
      },
      "geometry": {
        "type": "Point",
        "coordinates": [
          63.4164176597963,
          -67.90731520655248
        ]
      }
    },
    {
      "type": "Feature",
      "properties": {
        "norad_id": 35065,
        "name": "COSMOS 2251 DEB",
        "group": "cosmos-2251-debris",
        "lat": 11.695745637442897,
        "lon": -146.7941620410183,
        "alt_km": 729.5216497893662,
        "timestamp": "2025-12-04T10:51:50.501966+00:00",
        "meta_object_name": "COSMOS 2251 DEB",
        "meta_object_id": "1993-036AHU",
        "meta_epoch": "2025-12-03T23:10:57.469152",
        "meta_mean_motion": 14.45687943,
        "meta_eccentricity": 0.0019527,
        "meta_inclination": 74.0194,
        "meta_ra_of_asc_node": 210.7131,
        "meta_arg_of_pericenter": 337.0317,
        "meta_mean_anomaly": 22.9965,
        "meta_ephemeris_type": 0,
        "meta_classification_type": "U",
        "meta_norad_cat_id": 35065,
        "meta_element_set_no": 999,
        "meta_rev_at_epoch": 68224,
        "meta_bstar": 0.00072056,
        "meta_mean_motion_dot": 2.53e-05,
        "meta_mean_motion_ddot": 0,
        "tle_line1": "1 35065U 93036AHU 25337.96594293  .00002530  00000+0  72056-3 0  9999",
        "tle_line2": "2 35065  74.0194 210.7131 0019527 337.0317  22.9965 14.45687943682245"
      },
      "geometry": {
        "type": "Point",
        "coordinates": [
          -146.7941620410183,
          11.695745637442897
        ]
      }
    },
    {
      "type": "Feature",
      "properties": {
        "norad_id": 35071,
        "name": "COSMOS 2251 DEB",
        "group": "cosmos-2251-debris",
        "lat": -44.25653309600039,
        "lon": 174.16337537791054,
        "alt_km": 597.4418596355681,
        "timestamp": "2025-12-04T10:51:50.501977+00:00",
        "meta_object_name": "COSMOS 2251 DEB",
        "meta_object_id": "1993-036AJA",
        "meta_epoch": "2025-12-03T07:55:04.067616",
        "meta_mean_motion": 15.03160044,
        "meta_eccentricity": 0.0068446,
        "meta_inclination": 73.9314,
        "meta_ra_of_asc_node": 192.7815,
        "meta_arg_of_pericenter": 92.1251,
        "meta_mean_anomaly": 268.7777,
        "meta_ephemeris_type": 0,
        "meta_classification_type": "U",
        "meta_norad_cat_id": 35071,
        "meta_element_set_no": 999,
        "meta_rev_at_epoch": 67395,
        "meta_bstar": 0.00089094,
        "meta_mean_motion_dot": 0.00012654,
        "meta_mean_motion_ddot": 0,
        "tle_line1": "1 35071U 93036AJA 25337.32990819  .00012654  00000+0  89094-3 0  9998",
        "tle_line2": "2 35071  73.9314 192.7815 0068446  92.1251 268.7777 15.03160044673954"
      },
      "geometry": {
        "type": "Point",
        "coordinates": [
          174.16337537791054,
          -44.25653309600039
        ]
      }
    },
    {
      "type": "Feature",
      "properties": {
        "norad_id": 35073,
        "name": "COSMOS 2251 DEB",
        "group": "cosmos-2251-debris",
        "lat": 24.213620512583752,
        "lon": 160.04914678684642,
        "alt_km": 563.8364661080341,
        "timestamp": "2025-12-04T10:51:50.501988+00:00",
        "meta_object_name": "COSMOS 2251 DEB",
        "meta_object_id": "1993-036AJC",
        "meta_epoch": "2025-12-03T18:10:04.588320",
        "meta_mean_motion": 14.99680723,
        "meta_eccentricity": 0.00102038,
        "meta_inclination": 74.0008,
        "meta_ra_of_asc_node": 348.8784,
        "meta_arg_of_pericenter": 90.7661,
        "meta_mean_anomaly": 269.4694,
        "meta_ephemeris_type": 0,
        "meta_classification_type": "U",
        "meta_norad_cat_id": 35073,
        "meta_element_set_no": 999,
        "meta_rev_at_epoch": 67344,
        "meta_bstar": 0.0034491623,
        "meta_mean_motion_dot": 0.00042819,
        "meta_mean_motion_ddot": 0,
        "tle_line1": "1 35073U 93036AJC 25337.75699755  .00042819  00000+0  34492-2 0  9999",
        "tle_line2": "2 35073  74.0008 348.8784 0010203  90.7661 269.4694 14.99680723673449"
      },
      "geometry": {
        "type": "Point",
        "coordinates": [
          160.04914678684642,
          24.213620512583752
        ]
      }
    },
    {
      "type": "Feature",
      "properties": {
        "norad_id": 35284,
        "name": "COSMOS 2251 DEB",
        "group": "cosmos-2251-debris",
        "lat": -67.06953946706635,
        "lon": -122.85341735656787,
        "alt_km": 767.197785860003,
        "timestamp": "2025-12-04T10:51:50.501998+00:00",
        "meta_object_name": "COSMOS 2251 DEB",
        "meta_object_id": "1993-036AJN",
        "meta_epoch": "2025-12-01T13:38:31.155360",
        "meta_mean_motion": 14.382963,
        "meta_eccentricity": 0.00163281,
        "meta_inclination": 74.049,
        "meta_ra_of_asc_node": 284.9919,
        "meta_arg_of_pericenter": 3.7139,
        "meta_mean_anomaly": 114.9177,
        "meta_ephemeris_type": 0,
        "meta_classification_type": "U",
        "meta_norad_cat_id": 35284,
        "meta_element_set_no": 999,
        "meta_rev_at_epoch": 65365,
        "meta_bstar": 0.00020439824,
        "meta_mean_motion_dot": 5.97e-06,
        "meta_mean_motion_ddot": 0,
        "tle_line1": "1 35284U 93036AJN 25335.56841615  .00000597  00000+0  20440-3 0  9990",
        "tle_line2": "2 35284  74.0490 284.9919 0016328   3.7139 114.9177 14.38296300653654"
      },
      "geometry": {
        "type": "Point",
        "coordinates": [
          -122.85341735656787,
          -67.06953946706635
        ]
      }
    },
    {
      "type": "Feature",
      "properties": {
        "norad_id": 35287,
        "name": "COSMOS 2251 DEB",
        "group": "cosmos-2251-debris",
        "lat": 18.604278653930663,
        "lon": 105.83245914201426,
        "alt_km": 778.3411921577008,
        "timestamp": "2025-12-04T10:51:50.502008+00:00",
        "meta_object_name": "COSMOS 2251 DEB",
        "meta_object_id": "1993-036AJR",
        "meta_epoch": "2025-12-03T08:05:46.925952",
        "meta_mean_motion": 14.3636224,
        "meta_eccentricity": 0.0017175,
        "meta_inclination": 74.0299,
        "meta_ra_of_asc_node": 293.4128,
        "meta_arg_of_pericenter": 32.768,
        "meta_mean_anomaly": 122.7025,
        "meta_ephemeris_type": 0,
        "meta_classification_type": "U",
        "meta_norad_cat_id": 35287,
        "meta_element_set_no": 999,
        "meta_rev_at_epoch": 86757,
        "meta_bstar": 0.00022522,
        "meta_mean_motion_dot": 6.34e-06,
        "meta_mean_motion_ddot": 0,
        "tle_line1": "1 35287U 93036AJR 25337.33734868  .00000634  00000+0  22522-3 0  9996",
        "tle_line2": "2 35287  74.0299 293.4128 0017175  32.7680 122.7025 14.36362240867577"
      },
      "geometry": {
        "type": "Point",
        "coordinates": [
          105.83245914201426,
          18.604278653930663
        ]
      }
    }
  ]
}